<?xml version="1.0" encoding="UTF-8"?>
<gpx version="1.1" creator="TrackTale rail-gpx" xmlns="http://www.topografix.com/GPX/1/1">
  <trk>
    <name>Zug Aberdeen – Forres</name>
    <type>train</type>
    <trkseg>
      <trkpt lat="57.143140" lon="-2.098017"></trkpt>
      <trkpt lat="57.143015" lon="-2.097864"></trkpt>
      <trkpt lat="57.142804" lon="-2.097644"></trkpt>
      <trkpt lat="57.142567" lon="-2.097447"></trkpt>
      <trkpt lat="57.142331" lon="-2.097297"></trkpt>
      <trkpt lat="57.142136" lon="-2.097201"></trkpt>
      <trkpt lat="57.141825" lon="-2.097091"></trkpt>
      <trkpt lat="57.141586" lon="-2.097019"></trkpt>
      <trkpt lat="57.141323" lon="-2.096974"></trkpt>
      <trkpt lat="57.141061" lon="-2.096957"></trkpt>
      <trkpt lat="57.140639" lon="-2.096969"></trkpt>
      <trkpt lat="57.140079" lon="-2.097033"></trkpt>
      <trkpt lat="57.140394" lon="-2.097053"></trkpt>
      <trkpt lat="57.140914" lon="-2.097248"></trkpt>
      <trkpt lat="57.141117" lon="-2.097303"></trkpt>
      <trkpt lat="57.141675" lon="-2.097463"></trkpt>
      <trkpt lat="57.141938" lon="-2.097546"></trkpt>
      <trkpt lat="57.142245" lon="-2.097679"></trkpt>
      <trkpt lat="57.142410" lon="-2.097789"></trkpt>
      <trkpt lat="57.142546" lon="-2.097894"></trkpt>
      <trkpt lat="57.142684" lon="-2.098018"></trkpt>
      <trkpt lat="57.142797" lon="-2.098135"></trkpt>
      <trkpt lat="57.142915" lon="-2.098274"></trkpt>
      <trkpt lat="57.143118" lon="-2.098533"></trkpt>
      <trkpt lat="57.143430" lon="-2.098909"></trkpt>
      <trkpt lat="57.143693" lon="-2.099220"></trkpt>
      <trkpt lat="57.144137" lon="-2.099785"></trkpt>
      <trkpt lat="57.144700" lon="-2.100416"></trkpt>
      <trkpt lat="57.145243" lon="-2.100983"></trkpt>
      <trkpt lat="57.145752" lon="-2.101526"></trkpt>
      <trkpt lat="57.145906" lon="-2.101698"></trkpt>
      <trkpt lat="57.146385" lon="-2.102323"></trkpt>
      <trkpt lat="57.146460" lon="-2.102425"></trkpt>
      <trkpt lat="57.146716" lon="-2.102756"></trkpt>
      <trkpt lat="57.147003" lon="-2.103111"></trkpt>
      <trkpt lat="57.147319" lon="-2.103449"></trkpt>
      <trkpt lat="57.147604" lon="-2.103692"></trkpt>
      <trkpt lat="57.148519" lon="-2.104302"></trkpt>
      <trkpt lat="57.148895" lon="-2.104623"></trkpt>
      <trkpt lat="57.149232" lon="-2.105016"></trkpt>
      <trkpt lat="57.149433" lon="-2.105300"></trkpt>
      <trkpt lat="57.150298" lon="-2.106576"></trkpt>
      <trkpt lat="57.151546" lon="-2.108446"></trkpt>
      <trkpt lat="57.152115" lon="-2.109241"></trkpt>
      <trkpt lat="57.152791" lon="-2.109935"></trkpt>
      <trkpt lat="57.153329" lon="-2.110355"></trkpt>
      <trkpt lat="57.154287" lon="-2.111013"></trkpt>
      <trkpt lat="57.155045" lon="-2.111524"></trkpt>
      <trkpt lat="57.156275" lon="-2.112349"></trkpt>
      <trkpt lat="57.157338" lon="-2.113042"></trkpt>
      <trkpt lat="57.157885" lon="-2.113318"></trkpt>
      <trkpt lat="57.158216" lon="-2.113448"></trkpt>
      <trkpt lat="57.158748" lon="-2.113611"></trkpt>
      <trkpt lat="57.159236" lon="-2.113708"></trkpt>
      <trkpt lat="57.159554" lon="-2.113740"></trkpt>
      <trkpt lat="57.159968" lon="-2.113749"></trkpt>
      <trkpt lat="57.160111" lon="-2.113745"></trkpt>
      <trkpt lat="57.160458" lon="-2.113719"></trkpt>
      <trkpt lat="57.161204" lon="-2.113580"></trkpt>
      <trkpt lat="57.162768" lon="-2.113249"></trkpt>
      <trkpt lat="57.163145" lon="-2.113189"></trkpt>
      <trkpt lat="57.163678" lon="-2.113195"></trkpt>
      <trkpt lat="57.164325" lon="-2.113301"></trkpt>
      <trkpt lat="57.165029" lon="-2.113503"></trkpt>
      <trkpt lat="57.165640" lon="-2.113761"></trkpt>
      <trkpt lat="57.165874" lon="-2.113882"></trkpt>
      <trkpt lat="57.166038" lon="-2.113974"></trkpt>
      <trkpt lat="57.166314" lon="-2.114136"></trkpt>
      <trkpt lat="57.167241" lon="-2.114839"></trkpt>
      <trkpt lat="57.167738" lon="-2.115324"></trkpt>
      <trkpt lat="57.168291" lon="-2.115947"></trkpt>
      <trkpt lat="57.169429" lon="-2.117597"></trkpt>
      <trkpt lat="57.170347" lon="-2.119403"></trkpt>
      <trkpt lat="57.170913" lon="-2.120797"></trkpt>
      <trkpt lat="57.171177" lon="-2.121526"></trkpt>
      <trkpt lat="57.171279" lon="-2.121835"></trkpt>
      <trkpt lat="57.171479" lon="-2.122463"></trkpt>
      <trkpt lat="57.171833" lon="-2.123767"></trkpt>
      <trkpt lat="57.172165" lon="-2.125248"></trkpt>
      <trkpt lat="57.172324" lon="-2.126147"></trkpt>
      <trkpt lat="57.172499" lon="-2.127298"></trkpt>
      <trkpt lat="57.172611" lon="-2.128276"></trkpt>
      <trkpt lat="57.172691" lon="-2.129144"></trkpt>
      <trkpt lat="57.172764" lon="-2.130021"></trkpt>
      <trkpt lat="57.172814" lon="-2.130857"></trkpt>
      <trkpt lat="57.172900" lon="-2.132155"></trkpt>
      <trkpt lat="57.173072" lon="-2.134893"></trkpt>
      <trkpt lat="57.173252" lon="-2.137751"></trkpt>
      <trkpt lat="57.173585" lon="-2.143144"></trkpt>
      <trkpt lat="57.173700" lon="-2.144974"></trkpt>
      <trkpt lat="57.173739" lon="-2.145593"></trkpt>
      <trkpt lat="57.173848" lon="-2.147286"></trkpt>
      <trkpt lat="57.173949" lon="-2.148893"></trkpt>
      <trkpt lat="57.174085" lon="-2.151067"></trkpt>
      <trkpt lat="57.174267" lon="-2.153881"></trkpt>
      <trkpt lat="57.174348" lon="-2.154757"></trkpt>
      <trkpt lat="57.174457" lon="-2.155616"></trkpt>
      <trkpt lat="57.174612" lon="-2.156542"></trkpt>
      <trkpt lat="57.174866" lon="-2.157713"></trkpt>
      <trkpt lat="57.175145" lon="-2.158702"></trkpt>
      <trkpt lat="57.175927" lon="-2.160782"></trkpt>
      <trkpt lat="57.176462" lon="-2.162153"></trkpt>
      <trkpt lat="57.176785" lon="-2.163214"></trkpt>
      <trkpt lat="57.176993" lon="-2.164054"></trkpt>
      <trkpt lat="57.177163" lon="-2.164885"></trkpt>
      <trkpt lat="57.177274" lon="-2.165427"></trkpt>
      <trkpt lat="57.177506" lon="-2.166592"></trkpt>
      <trkpt lat="57.177769" lon="-2.167597"></trkpt>
      <trkpt lat="57.178236" lon="-2.169031"></trkpt>
      <trkpt lat="57.178735" lon="-2.170184"></trkpt>
      <trkpt lat="57.179219" lon="-2.171079"></trkpt>
      <trkpt lat="57.179636" lon="-2.171766"></trkpt>
      <trkpt lat="57.180739" lon="-2.173363"></trkpt>
      <trkpt lat="57.183011" lon="-2.176572"></trkpt>
      <trkpt lat="57.184464" lon="-2.178661"></trkpt>
      <trkpt lat="57.185202" lon="-2.179635"></trkpt>
      <trkpt lat="57.185831" lon="-2.180290"></trkpt>
      <trkpt lat="57.186312" lon="-2.180701"></trkpt>
      <trkpt lat="57.186768" lon="-2.181017"></trkpt>
      <trkpt lat="57.187150" lon="-2.181231"></trkpt>
      <trkpt lat="57.187465" lon="-2.181377"></trkpt>
      <trkpt lat="57.187874" lon="-2.181526"></trkpt>
      <trkpt lat="57.188349" lon="-2.181643"></trkpt>
      <trkpt lat="57.188971" lon="-2.181712"></trkpt>
      <trkpt lat="57.189339" lon="-2.181696"></trkpt>
      <trkpt lat="57.190727" lon="-2.181524"></trkpt>
      <trkpt lat="57.190872" lon="-2.181509"></trkpt>
      <trkpt lat="57.191362" lon="-2.181522"></trkpt>
      <trkpt lat="57.191986" lon="-2.181630"></trkpt>
      <trkpt lat="57.192827" lon="-2.181973"></trkpt>
      <trkpt lat="57.193384" lon="-2.182275"></trkpt>
      <trkpt lat="57.194624" lon="-2.183123"></trkpt>
      <trkpt lat="57.195800" lon="-2.183944"></trkpt>
      <trkpt lat="57.196631" lon="-2.184521"></trkpt>
      <trkpt lat="57.196939" lon="-2.184769"></trkpt>
      <trkpt lat="57.197326" lon="-2.185118"></trkpt>
      <trkpt lat="57.197720" lon="-2.185547"></trkpt>
      <trkpt lat="57.198172" lon="-2.186132"></trkpt>
      <trkpt lat="57.199038" lon="-2.187332"></trkpt>
      <trkpt lat="57.199471" lon="-2.187842"></trkpt>
      <trkpt lat="57.199938" lon="-2.188298"></trkpt>
      <trkpt lat="57.200656" lon="-2.188866"></trkpt>
      <trkpt lat="57.201407" lon="-2.189433"></trkpt>
      <trkpt lat="57.203363" lon="-2.190931"></trkpt>
      <trkpt lat="57.204207" lon="-2.191571"></trkpt>
      <trkpt lat="57.204411" lon="-2.191727"></trkpt>
      <trkpt lat="57.204830" lon="-2.192052"></trkpt>
      <trkpt lat="57.205692" lon="-2.192715"></trkpt>
      <trkpt lat="57.206533" lon="-2.193372"></trkpt>
      <trkpt lat="57.208478" lon="-2.194885"></trkpt>
      <trkpt lat="57.211719" lon="-2.197391"></trkpt>
      <trkpt lat="57.212714" lon="-2.198139"></trkpt>
      <trkpt lat="57.213593" lon="-2.198813"></trkpt>
      <trkpt lat="57.215199" lon="-2.200066"></trkpt>
      <trkpt lat="57.216710" lon="-2.201199"></trkpt>
      <trkpt lat="57.217046" lon="-2.201459"></trkpt>
      <trkpt lat="57.217991" lon="-2.202196"></trkpt>
      <trkpt lat="57.218675" lon="-2.202795"></trkpt>
      <trkpt lat="57.218909" lon="-2.203044"></trkpt>
      <trkpt lat="57.219262" lon="-2.203459"></trkpt>
      <trkpt lat="57.219603" lon="-2.203921"></trkpt>
      <trkpt lat="57.219920" lon="-2.204399"></trkpt>
      <trkpt lat="57.220143" lon="-2.204778"></trkpt>
      <trkpt lat="57.220452" lon="-2.205349"></trkpt>
      <trkpt lat="57.220880" lon="-2.206287"></trkpt>
      <trkpt lat="57.221889" lon="-2.208864"></trkpt>
      <trkpt lat="57.222163" lon="-2.209548"></trkpt>
      <trkpt lat="57.223364" lon="-2.212610"></trkpt>
      <trkpt lat="57.224003" lon="-2.214584"></trkpt>
      <trkpt lat="57.224421" lon="-2.216568"></trkpt>
      <trkpt lat="57.224677" lon="-2.218704"></trkpt>
      <trkpt lat="57.224715" lon="-2.220166"></trkpt>
      <trkpt lat="57.224740" lon="-2.221710"></trkpt>
      <trkpt lat="57.224811" lon="-2.222920"></trkpt>
      <trkpt lat="57.224949" lon="-2.224253"></trkpt>
      <trkpt lat="57.225269" lon="-2.226010"></trkpt>
      <trkpt lat="57.225751" lon="-2.228102"></trkpt>
      <trkpt lat="57.226226" lon="-2.230236"></trkpt>
      <trkpt lat="57.226721" lon="-2.232383"></trkpt>
      <trkpt lat="57.227046" lon="-2.233527"></trkpt>
      <trkpt lat="57.227402" lon="-2.234575"></trkpt>
      <trkpt lat="57.227856" lon="-2.235626"></trkpt>
      <trkpt lat="57.228344" lon="-2.236524"></trkpt>
      <trkpt lat="57.228812" lon="-2.237312"></trkpt>
      <trkpt lat="57.229218" lon="-2.238044"></trkpt>
      <trkpt lat="57.229884" lon="-2.239552"></trkpt>
      <trkpt lat="57.230197" lon="-2.240470"></trkpt>
      <trkpt lat="57.230505" lon="-2.241583"></trkpt>
      <trkpt lat="57.230747" lon="-2.242761"></trkpt>
      <trkpt lat="57.230926" lon="-2.243830"></trkpt>
      <trkpt lat="57.231098" lon="-2.245476"></trkpt>
      <trkpt lat="57.231141" lon="-2.246255"></trkpt>
      <trkpt lat="57.231153" lon="-2.246769"></trkpt>
      <trkpt lat="57.231155" lon="-2.247329"></trkpt>
      <trkpt lat="57.231142" lon="-2.247979"></trkpt>
      <trkpt lat="57.231115" lon="-2.248554"></trkpt>
      <trkpt lat="57.231075" lon="-2.249124"></trkpt>
      <trkpt lat="57.230964" lon="-2.250173"></trkpt>
      <trkpt lat="57.230839" lon="-2.250987"></trkpt>
      <trkpt lat="57.230508" lon="-2.252628"></trkpt>
      <trkpt lat="57.230078" lon="-2.254130"></trkpt>
      <trkpt lat="57.229733" lon="-2.255077"></trkpt>
      <trkpt lat="57.229317" lon="-2.256090"></trkpt>
      <trkpt lat="57.228995" lon="-2.256914"></trkpt>
      <trkpt lat="57.228780" lon="-2.257541"></trkpt>
      <trkpt lat="57.228531" lon="-2.258367"></trkpt>
      <trkpt lat="57.228267" lon="-2.259470"></trkpt>
      <trkpt lat="57.228068" lon="-2.260578"></trkpt>
      <trkpt lat="57.227953" lon="-2.261412"></trkpt>
      <trkpt lat="57.227845" lon="-2.262601"></trkpt>
      <trkpt lat="57.227809" lon="-2.263269"></trkpt>
      <trkpt lat="57.227792" lon="-2.264257"></trkpt>
      <trkpt lat="57.227812" lon="-2.265204"></trkpt>
      <trkpt lat="57.227880" lon="-2.266281"></trkpt>
      <trkpt lat="57.227943" lon="-2.266914"></trkpt>
      <trkpt lat="57.228020" lon="-2.267533"></trkpt>
      <trkpt lat="57.228108" lon="-2.268125"></trkpt>
      <trkpt lat="57.228413" lon="-2.269955"></trkpt>
      <trkpt lat="57.228519" lon="-2.270718"></trkpt>
      <trkpt lat="57.228614" lon="-2.271733"></trkpt>
      <trkpt lat="57.228664" lon="-2.273136"></trkpt>
      <trkpt lat="57.228649" lon="-2.273997"></trkpt>
      <trkpt lat="57.228598" lon="-2.274881"></trkpt>
      <trkpt lat="57.228453" lon="-2.276218"></trkpt>
      <trkpt lat="57.228242" lon="-2.277886"></trkpt>
      <trkpt lat="57.228124" lon="-2.279244"></trkpt>
      <trkpt lat="57.228078" lon="-2.280502"></trkpt>
      <trkpt lat="57.228083" lon="-2.281655"></trkpt>
      <trkpt lat="57.228138" lon="-2.282732"></trkpt>
      <trkpt lat="57.228225" lon="-2.283669"></trkpt>
      <trkpt lat="57.228358" lon="-2.284669"></trkpt>
      <trkpt lat="57.229147" lon="-2.289486"></trkpt>
      <trkpt lat="57.229391" lon="-2.291011"></trkpt>
      <trkpt lat="57.229571" lon="-2.292409"></trkpt>
      <trkpt lat="57.229655" lon="-2.293476"></trkpt>
      <trkpt lat="57.229707" lon="-2.294794"></trkpt>
      <trkpt lat="57.229703" lon="-2.296086"></trkpt>
      <trkpt lat="57.229642" lon="-2.297384"></trkpt>
      <trkpt lat="57.229433" lon="-2.299336"></trkpt>
      <trkpt lat="57.229122" lon="-2.301223"></trkpt>
      <trkpt lat="57.228594" lon="-2.303634"></trkpt>
      <trkpt lat="57.227101" lon="-2.310341"></trkpt>
      <trkpt lat="57.226615" lon="-2.312648"></trkpt>
      <trkpt lat="57.226428" lon="-2.313949"></trkpt>
      <trkpt lat="57.226307" lon="-2.315404"></trkpt>
      <trkpt lat="57.226272" lon="-2.316658"></trkpt>
      <trkpt lat="57.226283" lon="-2.317503"></trkpt>
      <trkpt lat="57.226338" lon="-2.318458"></trkpt>
      <trkpt lat="57.226484" lon="-2.319985"></trkpt>
      <trkpt lat="57.226827" lon="-2.321855"></trkpt>
      <trkpt lat="57.227227" lon="-2.323346"></trkpt>
      <trkpt lat="57.227739" lon="-2.324779"></trkpt>
      <trkpt lat="57.228335" lon="-2.326062"></trkpt>
      <trkpt lat="57.230301" lon="-2.329903"></trkpt>
      <trkpt lat="57.230590" lon="-2.330469"></trkpt>
      <trkpt lat="57.232103" lon="-2.333442"></trkpt>
      <trkpt lat="57.234213" lon="-2.337580"></trkpt>
      <trkpt lat="57.235448" lon="-2.340011"></trkpt>
      <trkpt lat="57.237280" lon="-2.343585"></trkpt>
      <trkpt lat="57.237624" lon="-2.344212"></trkpt>
      <trkpt lat="57.238466" lon="-2.345600"></trkpt>
      <trkpt lat="57.238843" lon="-2.346148"></trkpt>
      <trkpt lat="57.239562" lon="-2.347115"></trkpt>
      <trkpt lat="57.240343" lon="-2.348096"></trkpt>
      <trkpt lat="57.240690" lon="-2.348488"></trkpt>
      <trkpt lat="57.241075" lon="-2.348883"></trkpt>
      <trkpt lat="57.241515" lon="-2.349266"></trkpt>
      <trkpt lat="57.242176" lon="-2.349700"></trkpt>
      <trkpt lat="57.242866" lon="-2.350054"></trkpt>
      <trkpt lat="57.243915" lon="-2.350437"></trkpt>
      <trkpt lat="57.248296" lon="-2.351987"></trkpt>
      <trkpt lat="57.248623" lon="-2.352157"></trkpt>
      <trkpt lat="57.249155" lon="-2.352502"></trkpt>
      <trkpt lat="57.249640" lon="-2.352895"></trkpt>
      <trkpt lat="57.250102" lon="-2.353341"></trkpt>
      <trkpt lat="57.250819" lon="-2.354225"></trkpt>
      <trkpt lat="57.252556" lon="-2.356676"></trkpt>
      <trkpt lat="57.253334" lon="-2.357932"></trkpt>
      <trkpt lat="57.253892" lon="-2.359021"></trkpt>
      <trkpt lat="57.254974" lon="-2.361224"></trkpt>
      <trkpt lat="57.255689" lon="-2.362285"></trkpt>
      <trkpt lat="57.257863" lon="-2.364798"></trkpt>
      <trkpt lat="57.259189" lon="-2.365875"></trkpt>
      <trkpt lat="57.260254" lon="-2.366353"></trkpt>
      <trkpt lat="57.261479" lon="-2.366503"></trkpt>
      <trkpt lat="57.262493" lon="-2.366380"></trkpt>
      <trkpt lat="57.263257" lon="-2.366113"></trkpt>
      <trkpt lat="57.265229" lon="-2.365360"></trkpt>
      <trkpt lat="57.267000" lon="-2.364695"></trkpt>
      <trkpt lat="57.267950" lon="-2.364496"></trkpt>
      <trkpt lat="57.268690" lon="-2.364482"></trkpt>
      <trkpt lat="57.269348" lon="-2.364562"></trkpt>
      <trkpt lat="57.269812" lon="-2.364680"></trkpt>
      <trkpt lat="57.271298" lon="-2.365266"></trkpt>
      <trkpt lat="57.275494" lon="-2.366997"></trkpt>
      <trkpt lat="57.276881" lon="-2.367586"></trkpt>
      <trkpt lat="57.278072" lon="-2.368210"></trkpt>
      <trkpt lat="57.280286" lon="-2.369577"></trkpt>
      <trkpt lat="57.282407" lon="-2.370865"></trkpt>
      <trkpt lat="57.283102" lon="-2.371295"></trkpt>
      <trkpt lat="57.284236" lon="-2.371995"></trkpt>
      <trkpt lat="57.285027" lon="-2.372493"></trkpt>
      <trkpt lat="57.285811" lon="-2.373070"></trkpt>
      <trkpt lat="57.286572" lon="-2.373677"></trkpt>
      <trkpt lat="57.287388" lon="-2.374411"></trkpt>
      <trkpt lat="57.288039" lon="-2.375078"></trkpt>
      <trkpt lat="57.288762" lon="-2.375892"></trkpt>
      <trkpt lat="57.289493" lon="-2.376815"></trkpt>
      <trkpt lat="57.289731" lon="-2.377136"></trkpt>
      <trkpt lat="57.290134" lon="-2.377707"></trkpt>
      <trkpt lat="57.290610" lon="-2.378424"></trkpt>
      <trkpt lat="57.291422" lon="-2.379771"></trkpt>
      <trkpt lat="57.292273" lon="-2.381186"></trkpt>
      <trkpt lat="57.292373" lon="-2.381362"></trkpt>
      <trkpt lat="57.292881" lon="-2.382250"></trkpt>
      <trkpt lat="57.293362" lon="-2.383106"></trkpt>
      <trkpt lat="57.293898" lon="-2.384177"></trkpt>
      <trkpt lat="57.294278" lon="-2.385044"></trkpt>
      <trkpt lat="57.294739" lon="-2.386254"></trkpt>
      <trkpt lat="57.295105" lon="-2.387368"></trkpt>
      <trkpt lat="57.295397" lon="-2.388373"></trkpt>
      <trkpt lat="57.295679" lon="-2.389499"></trkpt>
      <trkpt lat="57.295972" lon="-2.391061"></trkpt>
      <trkpt lat="57.296294" lon="-2.393323"></trkpt>
      <trkpt lat="57.296471" lon="-2.396057"></trkpt>
      <trkpt lat="57.296590" lon="-2.400018"></trkpt>
      <trkpt lat="57.296800" lon="-2.402177"></trkpt>
      <trkpt lat="57.297115" lon="-2.404086"></trkpt>
      <trkpt lat="57.297578" lon="-2.406094"></trkpt>
      <trkpt lat="57.297666" lon="-2.406421"></trkpt>
      <trkpt lat="57.298081" lon="-2.407844"></trkpt>
      <trkpt lat="57.299105" lon="-2.410798"></trkpt>
      <trkpt lat="57.299833" lon="-2.413319"></trkpt>
      <trkpt lat="57.301236" lon="-2.418918"></trkpt>
      <trkpt lat="57.301785" lon="-2.420599"></trkpt>
      <trkpt lat="57.302382" lon="-2.421994"></trkpt>
      <trkpt lat="57.303124" lon="-2.423292"></trkpt>
      <trkpt lat="57.303952" lon="-2.424364"></trkpt>
      <trkpt lat="57.304665" lon="-2.425094"></trkpt>
      <trkpt lat="57.305697" lon="-2.425867"></trkpt>
      <trkpt lat="57.307661" lon="-2.426940"></trkpt>
      <trkpt lat="57.308496" lon="-2.427497"></trkpt>
      <trkpt lat="57.309463" lon="-2.428431"></trkpt>
      <trkpt lat="57.310379" lon="-2.429493"></trkpt>
      <trkpt lat="57.311827" lon="-2.430778"></trkpt>
      <trkpt lat="57.312300" lon="-2.431146"></trkpt>
      <trkpt lat="57.313108" lon="-2.431853"></trkpt>
      <trkpt lat="57.314623" lon="-2.433562"></trkpt>
      <trkpt lat="57.315522" lon="-2.434883"></trkpt>
      <trkpt lat="57.316149" lon="-2.435996"></trkpt>
      <trkpt lat="57.317496" lon="-2.438873"></trkpt>
      <trkpt lat="57.318185" lon="-2.440222"></trkpt>
      <trkpt lat="57.319076" lon="-2.441581"></trkpt>
      <trkpt lat="57.319708" lon="-2.442454"></trkpt>
      <trkpt lat="57.320680" lon="-2.444256"></trkpt>
      <trkpt lat="57.321254" lon="-2.445726"></trkpt>
      <trkpt lat="57.321810" lon="-2.447700"></trkpt>
      <trkpt lat="57.322163" lon="-2.449835"></trkpt>
      <trkpt lat="57.322350" lon="-2.451966"></trkpt>
      <trkpt lat="57.322325" lon="-2.453901"></trkpt>
      <trkpt lat="57.322168" lon="-2.455754"></trkpt>
      <trkpt lat="57.321914" lon="-2.457377"></trkpt>
      <trkpt lat="57.321540" lon="-2.458925"></trkpt>
      <trkpt lat="57.321021" lon="-2.460488"></trkpt>
      <trkpt lat="57.320186" lon="-2.462512"></trkpt>
      <trkpt lat="57.319716" lon="-2.463968"></trkpt>
      <trkpt lat="57.319411" lon="-2.465279"></trkpt>
      <trkpt lat="57.319137" lon="-2.466923"></trkpt>
      <trkpt lat="57.318998" lon="-2.468276"></trkpt>
      <trkpt lat="57.318939" lon="-2.469770"></trkpt>
      <trkpt lat="57.318970" lon="-2.471425"></trkpt>
      <trkpt lat="57.319033" lon="-2.473018"></trkpt>
      <trkpt lat="57.319006" lon="-2.475080"></trkpt>
      <trkpt lat="57.318757" lon="-2.477268"></trkpt>
      <trkpt lat="57.318073" lon="-2.481094"></trkpt>
      <trkpt lat="57.317950" lon="-2.482259"></trkpt>
      <trkpt lat="57.317877" lon="-2.483538"></trkpt>
      <trkpt lat="57.317906" lon="-2.485769"></trkpt>
      <trkpt lat="57.318404" lon="-2.490626"></trkpt>
      <trkpt lat="57.318764" lon="-2.492435"></trkpt>
      <trkpt lat="57.319510" lon="-2.495153"></trkpt>
      <trkpt lat="57.319921" lon="-2.497332"></trkpt>
      <trkpt lat="57.320123" lon="-2.499649"></trkpt>
      <trkpt lat="57.320116" lon="-2.501805"></trkpt>
      <trkpt lat="57.319917" lon="-2.503902"></trkpt>
      <trkpt lat="57.319649" lon="-2.505979"></trkpt>
      <trkpt lat="57.319574" lon="-2.507057"></trkpt>
      <trkpt lat="57.319528" lon="-2.508406"></trkpt>
      <trkpt lat="57.319567" lon="-2.509799"></trkpt>
      <trkpt lat="57.319705" lon="-2.511349"></trkpt>
      <trkpt lat="57.319975" lon="-2.513035"></trkpt>
      <trkpt lat="57.320395" lon="-2.514754"></trkpt>
      <trkpt lat="57.321317" lon="-2.517233"></trkpt>
      <trkpt lat="57.322755" lon="-2.520416"></trkpt>
      <trkpt lat="57.323262" lon="-2.522092"></trkpt>
      <trkpt lat="57.323687" lon="-2.524293"></trkpt>
      <trkpt lat="57.323907" lon="-2.526466"></trkpt>
      <trkpt lat="57.323924" lon="-2.528327"></trkpt>
      <trkpt lat="57.323831" lon="-2.530011"></trkpt>
      <trkpt lat="57.323582" lon="-2.531787"></trkpt>
      <trkpt lat="57.323020" lon="-2.534941"></trkpt>
      <trkpt lat="57.322590" lon="-2.538081"></trkpt>
      <trkpt lat="57.322345" lon="-2.541356"></trkpt>
      <trkpt lat="57.322285" lon="-2.544249"></trkpt>
      <trkpt lat="57.322346" lon="-2.547430"></trkpt>
      <trkpt lat="57.322385" lon="-2.548237"></trkpt>
      <trkpt lat="57.323397" lon="-2.558621"></trkpt>
      <trkpt lat="57.323403" lon="-2.558681"></trkpt>
      <trkpt lat="57.324229" lon="-2.566727"></trkpt>
      <trkpt lat="57.324394" lon="-2.567939"></trkpt>
      <trkpt lat="57.324776" lon="-2.570432"></trkpt>
      <trkpt lat="57.325323" lon="-2.573999"></trkpt>
      <trkpt lat="57.326119" lon="-2.578964"></trkpt>
      <trkpt lat="57.326346" lon="-2.580215"></trkpt>
      <trkpt lat="57.326555" lon="-2.581193"></trkpt>
      <trkpt lat="57.326952" lon="-2.582767"></trkpt>
      <trkpt lat="57.327605" lon="-2.584916"></trkpt>
      <trkpt lat="57.331369" lon="-2.597084"></trkpt>
      <trkpt lat="57.335292" lon="-2.609686"></trkpt>
      <trkpt lat="57.335952" lon="-2.611821"></trkpt>
      <trkpt lat="57.336559" lon="-2.613842"></trkpt>
      <trkpt lat="57.336810" lon="-2.614716"></trkpt>
      <trkpt lat="57.336957" lon="-2.615235"></trkpt>
      <trkpt lat="57.337115" lon="-2.615842"></trkpt>
      <trkpt lat="57.337331" lon="-2.616786"></trkpt>
      <trkpt lat="57.337437" lon="-2.617288"></trkpt>
      <trkpt lat="57.337508" lon="-2.617668"></trkpt>
      <trkpt lat="57.337609" lon="-2.618218"></trkpt>
      <trkpt lat="57.337655" lon="-2.618477"></trkpt>
      <trkpt lat="57.337748" lon="-2.619099"></trkpt>
      <trkpt lat="57.337858" lon="-2.619951"></trkpt>
      <trkpt lat="57.337918" lon="-2.620522"></trkpt>
      <trkpt lat="57.337977" lon="-2.621169"></trkpt>
      <trkpt lat="57.338038" lon="-2.622055"></trkpt>
      <trkpt lat="57.338067" lon="-2.622634"></trkpt>
      <trkpt lat="57.338088" lon="-2.623240"></trkpt>
      <trkpt lat="57.338104" lon="-2.623951"></trkpt>
      <trkpt lat="57.338111" lon="-2.625370"></trkpt>
      <trkpt lat="57.338122" lon="-2.626855"></trkpt>
      <trkpt lat="57.338129" lon="-2.628013"></trkpt>
      <trkpt lat="57.338130" lon="-2.628898"></trkpt>
      <trkpt lat="57.338124" lon="-2.629426"></trkpt>
      <trkpt lat="57.338107" lon="-2.629942"></trkpt>
      <trkpt lat="57.338079" lon="-2.630458"></trkpt>
      <trkpt lat="57.338043" lon="-2.630952"></trkpt>
      <trkpt lat="57.337977" lon="-2.631597"></trkpt>
      <trkpt lat="57.337915" lon="-2.632086"></trkpt>
      <trkpt lat="57.337794" lon="-2.632854"></trkpt>
      <trkpt lat="57.337591" lon="-2.633980"></trkpt>
      <trkpt lat="57.337465" lon="-2.634706"></trkpt>
      <trkpt lat="57.337384" lon="-2.635218"></trkpt>
      <trkpt lat="57.337275" lon="-2.636105"></trkpt>
      <trkpt lat="57.337213" lon="-2.636797"></trkpt>
      <trkpt lat="57.337171" lon="-2.637471"></trkpt>
      <trkpt lat="57.337147" lon="-2.638099"></trkpt>
      <trkpt lat="57.337140" lon="-2.638606"></trkpt>
      <trkpt lat="57.337145" lon="-2.639238"></trkpt>
      <trkpt lat="57.337168" lon="-2.639952"></trkpt>
      <trkpt lat="57.337211" lon="-2.640602"></trkpt>
      <trkpt lat="57.337260" lon="-2.641174"></trkpt>
      <trkpt lat="57.337334" lon="-2.641802"></trkpt>
      <trkpt lat="57.337403" lon="-2.642310"></trkpt>
      <trkpt lat="57.337499" lon="-2.642901"></trkpt>
      <trkpt lat="57.337594" lon="-2.643403"></trkpt>
      <trkpt lat="57.337741" lon="-2.644071"></trkpt>
      <trkpt lat="57.337907" lon="-2.644732"></trkpt>
      <trkpt lat="57.338106" lon="-2.645512"></trkpt>
      <trkpt lat="57.338298" lon="-2.646333"></trkpt>
      <trkpt lat="57.338404" lon="-2.646830"></trkpt>
      <trkpt lat="57.338520" lon="-2.647460"></trkpt>
      <trkpt lat="57.338651" lon="-2.648226"></trkpt>
      <trkpt lat="57.338751" lon="-2.648817"></trkpt>
      <trkpt lat="57.338849" lon="-2.649404"></trkpt>
      <trkpt lat="57.338921" lon="-2.649836"></trkpt>
      <trkpt lat="57.339007" lon="-2.650335"></trkpt>
      <trkpt lat="57.339123" lon="-2.650985"></trkpt>
      <trkpt lat="57.339278" lon="-2.651816"></trkpt>
      <trkpt lat="57.339422" lon="-2.652592"></trkpt>
      <trkpt lat="57.339556" lon="-2.653299"></trkpt>
      <trkpt lat="57.339687" lon="-2.654004"></trkpt>
      <trkpt lat="57.339816" lon="-2.654696"></trkpt>
      <trkpt lat="57.339982" lon="-2.655577"></trkpt>
      <trkpt lat="57.340113" lon="-2.656286"></trkpt>
      <trkpt lat="57.340262" lon="-2.657075"></trkpt>
      <trkpt lat="57.340415" lon="-2.657895"></trkpt>
      <trkpt lat="57.340628" lon="-2.658971"></trkpt>
      <trkpt lat="57.340785" lon="-2.659732"></trkpt>
      <trkpt lat="57.340939" lon="-2.660424"></trkpt>
      <trkpt lat="57.341128" lon="-2.661216"></trkpt>
      <trkpt lat="57.341338" lon="-2.662064"></trkpt>
      <trkpt lat="57.341505" lon="-2.662696"></trkpt>
      <trkpt lat="57.341699" lon="-2.663449"></trkpt>
      <trkpt lat="57.341870" lon="-2.664102"></trkpt>
      <trkpt lat="57.342019" lon="-2.664676"></trkpt>
      <trkpt lat="57.342223" lon="-2.665456"></trkpt>
      <trkpt lat="57.342436" lon="-2.666273"></trkpt>
      <trkpt lat="57.342753" lon="-2.667487"></trkpt>
      <trkpt lat="57.343073" lon="-2.668720"></trkpt>
      <trkpt lat="57.343387" lon="-2.669920"></trkpt>
      <trkpt lat="57.343848" lon="-2.671672"></trkpt>
      <trkpt lat="57.344022" lon="-2.672273"></trkpt>
      <trkpt lat="57.344154" lon="-2.672717"></trkpt>
      <trkpt lat="57.344302" lon="-2.673170"></trkpt>
      <trkpt lat="57.344442" lon="-2.673574"></trkpt>
      <trkpt lat="57.344549" lon="-2.673875"></trkpt>
      <trkpt lat="57.344650" lon="-2.674138"></trkpt>
      <trkpt lat="57.344750" lon="-2.674394"></trkpt>
      <trkpt lat="57.344858" lon="-2.674665"></trkpt>
      <trkpt lat="57.344949" lon="-2.674885"></trkpt>
      <trkpt lat="57.345104" lon="-2.675255"></trkpt>
      <trkpt lat="57.345252" lon="-2.675588"></trkpt>
      <trkpt lat="57.345398" lon="-2.675900"></trkpt>
      <trkpt lat="57.345655" lon="-2.676416"></trkpt>
      <trkpt lat="57.345793" lon="-2.676679"></trkpt>
      <trkpt lat="57.345961" lon="-2.676986"></trkpt>
      <trkpt lat="57.346153" lon="-2.677323"></trkpt>
      <trkpt lat="57.346327" lon="-2.677617"></trkpt>
      <trkpt lat="57.346550" lon="-2.677973"></trkpt>
      <trkpt lat="57.347174" lon="-2.678870"></trkpt>
      <trkpt lat="57.347989" lon="-2.679936"></trkpt>
      <trkpt lat="57.348673" lon="-2.680866"></trkpt>
      <trkpt lat="57.348963" lon="-2.681305"></trkpt>
      <trkpt lat="57.349288" lon="-2.681829"></trkpt>
      <trkpt lat="57.349471" lon="-2.682151"></trkpt>
      <trkpt lat="57.349731" lon="-2.682623"></trkpt>
      <trkpt lat="57.349946" lon="-2.683044"></trkpt>
      <trkpt lat="57.350225" lon="-2.683626"></trkpt>
      <trkpt lat="57.350405" lon="-2.684030"></trkpt>
      <trkpt lat="57.350627" lon="-2.684559"></trkpt>
      <trkpt lat="57.350854" lon="-2.685148"></trkpt>
      <trkpt lat="57.351056" lon="-2.685695"></trkpt>
      <trkpt lat="57.351222" lon="-2.686185"></trkpt>
      <trkpt lat="57.351372" lon="-2.686646"></trkpt>
      <trkpt lat="57.351530" lon="-2.687177"></trkpt>
      <trkpt lat="57.351640" lon="-2.687581"></trkpt>
      <trkpt lat="57.351775" lon="-2.688084"></trkpt>
      <trkpt lat="57.351887" lon="-2.688539"></trkpt>
      <trkpt lat="57.351969" lon="-2.688877"></trkpt>
      <trkpt lat="57.352213" lon="-2.689876"></trkpt>
      <trkpt lat="57.352435" lon="-2.690811"></trkpt>
      <trkpt lat="57.352684" lon="-2.691844"></trkpt>
      <trkpt lat="57.352919" lon="-2.692808"></trkpt>
      <trkpt lat="57.353327" lon="-2.694500"></trkpt>
      <trkpt lat="57.353918" lon="-2.696951"></trkpt>
      <trkpt lat="57.354515" lon="-2.699429"></trkpt>
      <trkpt lat="57.354907" lon="-2.701042"></trkpt>
      <trkpt lat="57.355244" lon="-2.702480"></trkpt>
      <trkpt lat="57.355389" lon="-2.703158"></trkpt>
      <trkpt lat="57.355509" lon="-2.703785"></trkpt>
      <trkpt lat="57.355606" lon="-2.704355"></trkpt>
      <trkpt lat="57.355692" lon="-2.704918"></trkpt>
      <trkpt lat="57.355831" lon="-2.706006"></trkpt>
      <trkpt lat="57.355952" lon="-2.707172"></trkpt>
      <trkpt lat="57.356093" lon="-2.708687"></trkpt>
      <trkpt lat="57.356328" lon="-2.711122"></trkpt>
      <trkpt lat="57.356419" lon="-2.711899"></trkpt>
      <trkpt lat="57.356521" lon="-2.712631"></trkpt>
      <trkpt lat="57.356647" lon="-2.713405"></trkpt>
      <trkpt lat="57.356854" lon="-2.714479"></trkpt>
      <trkpt lat="57.357106" lon="-2.715586"></trkpt>
      <trkpt lat="57.357463" lon="-2.717121"></trkpt>
      <trkpt lat="57.357636" lon="-2.717872"></trkpt>
      <trkpt lat="57.357778" lon="-2.718566"></trkpt>
      <trkpt lat="57.357846" lon="-2.718920"></trkpt>
      <trkpt lat="57.357931" lon="-2.719418"></trkpt>
      <trkpt lat="57.358050" lon="-2.720320"></trkpt>
      <trkpt lat="57.358104" lon="-2.720851"></trkpt>
      <trkpt lat="57.358135" lon="-2.721239"></trkpt>
      <trkpt lat="57.358168" lon="-2.721752"></trkpt>
      <trkpt lat="57.358184" lon="-2.722149"></trkpt>
      <trkpt lat="57.358199" lon="-2.722592"></trkpt>
      <trkpt lat="57.358204" lon="-2.723155"></trkpt>
      <trkpt lat="57.358199" lon="-2.723601"></trkpt>
      <trkpt lat="57.358184" lon="-2.724068"></trkpt>
      <trkpt lat="57.358148" lon="-2.724751"></trkpt>
      <trkpt lat="57.358114" lon="-2.725185"></trkpt>
      <trkpt lat="57.358070" lon="-2.725621"></trkpt>
      <trkpt lat="57.358013" lon="-2.726117"></trkpt>
      <trkpt lat="57.357953" lon="-2.726565"></trkpt>
      <trkpt lat="57.357887" lon="-2.726978"></trkpt>
      <trkpt lat="57.357805" lon="-2.727441"></trkpt>
      <trkpt lat="57.357718" lon="-2.727888"></trkpt>
      <trkpt lat="57.357590" lon="-2.728461"></trkpt>
      <trkpt lat="57.357468" lon="-2.728934"></trkpt>
      <trkpt lat="57.357376" lon="-2.729280"></trkpt>
      <trkpt lat="57.357241" lon="-2.729726"></trkpt>
      <trkpt lat="57.357110" lon="-2.730141"></trkpt>
      <trkpt lat="57.356940" lon="-2.730614"></trkpt>
      <trkpt lat="57.356798" lon="-2.730989"></trkpt>
      <trkpt lat="57.356621" lon="-2.731406"></trkpt>
      <trkpt lat="57.356423" lon="-2.731841"></trkpt>
      <trkpt lat="57.356009" lon="-2.732696"></trkpt>
      <trkpt lat="57.355750" lon="-2.733243"></trkpt>
      <trkpt lat="57.355569" lon="-2.733653"></trkpt>
      <trkpt lat="57.355444" lon="-2.733949"></trkpt>
      <trkpt lat="57.355318" lon="-2.734278"></trkpt>
      <trkpt lat="57.355208" lon="-2.734590"></trkpt>
      <trkpt lat="57.355083" lon="-2.734958"></trkpt>
      <trkpt lat="57.354935" lon="-2.735399"></trkpt>
      <trkpt lat="57.354516" lon="-2.736647"></trkpt>
      <trkpt lat="57.354056" lon="-2.738012"></trkpt>
      <trkpt lat="57.353826" lon="-2.738677"></trkpt>
      <trkpt lat="57.353370" lon="-2.740044"></trkpt>
      <trkpt lat="57.353113" lon="-2.740808"></trkpt>
      <trkpt lat="57.352569" lon="-2.742681"></trkpt>
      <trkpt lat="57.352097" lon="-2.744880"></trkpt>
      <trkpt lat="57.351850" lon="-2.746471"></trkpt>
      <trkpt lat="57.351694" lon="-2.747837"></trkpt>
      <trkpt lat="57.351614" lon="-2.748946"></trkpt>
      <trkpt lat="57.351587" lon="-2.750033"></trkpt>
      <trkpt lat="57.351569" lon="-2.751173"></trkpt>
      <trkpt lat="57.351581" lon="-2.752490"></trkpt>
      <trkpt lat="57.351647" lon="-2.753801"></trkpt>
      <trkpt lat="57.351737" lon="-2.754898"></trkpt>
      <trkpt lat="57.351852" lon="-2.755902"></trkpt>
      <trkpt lat="57.352004" lon="-2.756997"></trkpt>
      <trkpt lat="57.352338" lon="-2.758823"></trkpt>
      <trkpt lat="57.352720" lon="-2.760756"></trkpt>
      <trkpt lat="57.354218" lon="-2.768338"></trkpt>
      <trkpt lat="57.354748" lon="-2.770335"></trkpt>
      <trkpt lat="57.355060" lon="-2.771256"></trkpt>
      <trkpt lat="57.355609" lon="-2.772670"></trkpt>
      <trkpt lat="57.356081" lon="-2.773716"></trkpt>
      <trkpt lat="57.359340" lon="-2.779875"></trkpt>
      <trkpt lat="57.360147" lon="-2.781175"></trkpt>
      <trkpt lat="57.360632" lon="-2.781799"></trkpt>
      <trkpt lat="57.361128" lon="-2.782327"></trkpt>
      <trkpt lat="57.361614" lon="-2.782793"></trkpt>
      <trkpt lat="57.362295" lon="-2.783223"></trkpt>
      <trkpt lat="57.364408" lon="-2.784342"></trkpt>
      <trkpt lat="57.365375" lon="-2.784969"></trkpt>
      <trkpt lat="57.366228" lon="-2.785759"></trkpt>
      <trkpt lat="57.367043" lon="-2.786538"></trkpt>
      <trkpt lat="57.367670" lon="-2.787003"></trkpt>
      <trkpt lat="57.368347" lon="-2.787380"></trkpt>
      <trkpt lat="57.369098" lon="-2.787685"></trkpt>
      <trkpt lat="57.370021" lon="-2.788061"></trkpt>
      <trkpt lat="57.370640" lon="-2.788387"></trkpt>
      <trkpt lat="57.371533" lon="-2.789036"></trkpt>
      <trkpt lat="57.372281" lon="-2.789810"></trkpt>
      <trkpt lat="57.373330" lon="-2.791236"></trkpt>
      <trkpt lat="57.374053" lon="-2.792127"></trkpt>
      <trkpt lat="57.375752" lon="-2.793633"></trkpt>
      <trkpt lat="57.377610" lon="-2.795068"></trkpt>
      <trkpt lat="57.378489" lon="-2.795470"></trkpt>
      <trkpt lat="57.379104" lon="-2.795597"></trkpt>
      <trkpt lat="57.379832" lon="-2.795677"></trkpt>
      <trkpt lat="57.381093" lon="-2.795918"></trkpt>
      <trkpt lat="57.381814" lon="-2.796241"></trkpt>
      <trkpt lat="57.382539" lon="-2.796747"></trkpt>
      <trkpt lat="57.384059" lon="-2.798151"></trkpt>
      <trkpt lat="57.384805" lon="-2.798657"></trkpt>
      <trkpt lat="57.385758" lon="-2.799049"></trkpt>
      <trkpt lat="57.386177" lon="-2.799141"></trkpt>
      <trkpt lat="57.386668" lon="-2.799198"></trkpt>
      <trkpt lat="57.387431" lon="-2.799186"></trkpt>
      <trkpt lat="57.388215" lon="-2.798990"></trkpt>
      <trkpt lat="57.389007" lon="-2.798628"></trkpt>
      <trkpt lat="57.389546" lon="-2.798268"></trkpt>
      <trkpt lat="57.391225" lon="-2.797169"></trkpt>
      <trkpt lat="57.392371" lon="-2.796820"></trkpt>
      <trkpt lat="57.393322" lon="-2.796783"></trkpt>
      <trkpt lat="57.394739" lon="-2.796911"></trkpt>
      <trkpt lat="57.399939" lon="-2.796458"></trkpt>
      <trkpt lat="57.401226" lon="-2.796353"></trkpt>
      <trkpt lat="57.402564" lon="-2.796539"></trkpt>
      <trkpt lat="57.403507" lon="-2.796869"></trkpt>
      <trkpt lat="57.404709" lon="-2.797384"></trkpt>
      <trkpt lat="57.405808" lon="-2.797631"></trkpt>
      <trkpt lat="57.406726" lon="-2.797620"></trkpt>
      <trkpt lat="57.407503" lon="-2.797423"></trkpt>
      <trkpt lat="57.408099" lon="-2.797162"></trkpt>
      <trkpt lat="57.408707" lon="-2.796791"></trkpt>
      <trkpt lat="57.409531" lon="-2.796082"></trkpt>
      <trkpt lat="57.409923" lon="-2.795666"></trkpt>
      <trkpt lat="57.410614" lon="-2.794887"></trkpt>
      <trkpt lat="57.411397" lon="-2.794200"></trkpt>
      <trkpt lat="57.412315" lon="-2.793629"></trkpt>
      <trkpt lat="57.413155" lon="-2.793321"></trkpt>
      <trkpt lat="57.414174" lon="-2.793189"></trkpt>
      <trkpt lat="57.415121" lon="-2.793038"></trkpt>
      <trkpt lat="57.416943" lon="-2.792384"></trkpt>
      <trkpt lat="57.417850" lon="-2.792138"></trkpt>
      <trkpt lat="57.418665" lon="-2.792116"></trkpt>
      <trkpt lat="57.419543" lon="-2.792299"></trkpt>
      <trkpt lat="57.420629" lon="-2.792741"></trkpt>
      <trkpt lat="57.421605" lon="-2.793543"></trkpt>
      <trkpt lat="57.422501" lon="-2.794509"></trkpt>
      <trkpt lat="57.424315" lon="-2.796730"></trkpt>
      <trkpt lat="57.425204" lon="-2.797556"></trkpt>
      <trkpt lat="57.426140" lon="-2.798146"></trkpt>
      <trkpt lat="57.427076" lon="-2.798489"></trkpt>
      <trkpt lat="57.428577" lon="-2.798747"></trkpt>
      <trkpt lat="57.429739" lon="-2.798767"></trkpt>
      <trkpt lat="57.430094" lon="-2.798713"></trkpt>
      <trkpt lat="57.430347" lon="-2.798654"></trkpt>
      <trkpt lat="57.430876" lon="-2.798468"></trkpt>
      <trkpt lat="57.431661" lon="-2.798049"></trkpt>
      <trkpt lat="57.432378" lon="-2.797513"></trkpt>
      <trkpt lat="57.433082" lon="-2.796794"></trkpt>
      <trkpt lat="57.433735" lon="-2.795925"></trkpt>
      <trkpt lat="57.434350" lon="-2.794950"></trkpt>
      <trkpt lat="57.435112" lon="-2.793356"></trkpt>
      <trkpt lat="57.436679" lon="-2.789519"></trkpt>
      <trkpt lat="57.437985" lon="-2.786390"></trkpt>
      <trkpt lat="57.438901" lon="-2.784621"></trkpt>
      <trkpt lat="57.440064" lon="-2.782691"></trkpt>
      <trkpt lat="57.440618" lon="-2.781791"></trkpt>
      <trkpt lat="57.441271" lon="-2.780727"></trkpt>
      <trkpt lat="57.441902" lon="-2.779761"></trkpt>
      <trkpt lat="57.442730" lon="-2.778418"></trkpt>
      <trkpt lat="57.443598" lon="-2.777052"></trkpt>
      <trkpt lat="57.444060" lon="-2.776346"></trkpt>
      <trkpt lat="57.444492" lon="-2.775785"></trkpt>
      <trkpt lat="57.444805" lon="-2.775434"></trkpt>
      <trkpt lat="57.445245" lon="-2.774984"></trkpt>
      <trkpt lat="57.445441" lon="-2.774807"></trkpt>
      <trkpt lat="57.446408" lon="-2.774009"></trkpt>
      <trkpt lat="57.447148" lon="-2.773372"></trkpt>
      <trkpt lat="57.447852" lon="-2.772568"></trkpt>
      <trkpt lat="57.448447" lon="-2.771680"></trkpt>
      <trkpt lat="57.449552" lon="-2.769725"></trkpt>
      <trkpt lat="57.450130" lon="-2.768862"></trkpt>
      <trkpt lat="57.450819" lon="-2.768041"></trkpt>
      <trkpt lat="57.451835" lon="-2.767204"></trkpt>
      <trkpt lat="57.452958" lon="-2.766635"></trkpt>
      <trkpt lat="57.453586" lon="-2.766462"></trkpt>
      <trkpt lat="57.454127" lon="-2.766390"></trkpt>
      <trkpt lat="57.454656" lon="-2.766405"></trkpt>
      <trkpt lat="57.455255" lon="-2.766507"></trkpt>
      <trkpt lat="57.455834" lon="-2.766702"></trkpt>
      <trkpt lat="57.456874" lon="-2.767172"></trkpt>
      <trkpt lat="57.457890" lon="-2.767408"></trkpt>
      <trkpt lat="57.459154" lon="-2.767279"></trkpt>
      <trkpt lat="57.460406" lon="-2.766721"></trkpt>
      <trkpt lat="57.461525" lon="-2.765841"></trkpt>
      <trkpt lat="57.463655" lon="-2.763427"></trkpt>
      <trkpt lat="57.465992" lon="-2.760756"></trkpt>
      <trkpt lat="57.467024" lon="-2.760026"></trkpt>
      <trkpt lat="57.468063" lon="-2.759586"></trkpt>
      <trkpt lat="57.469240" lon="-2.759436"></trkpt>
      <trkpt lat="57.469777" lon="-2.759458"></trkpt>
      <trkpt lat="57.472603" lon="-2.759640"></trkpt>
      <trkpt lat="57.477582" lon="-2.759973"></trkpt>
      <trkpt lat="57.480933" lon="-2.760209"></trkpt>
      <trkpt lat="57.481925" lon="-2.760434"></trkpt>
      <trkpt lat="57.482934" lon="-2.760949"></trkpt>
      <trkpt lat="57.483834" lon="-2.761689"></trkpt>
      <trkpt lat="57.484398" lon="-2.762281"></trkpt>
      <trkpt lat="57.484970" lon="-2.763105"></trkpt>
      <trkpt lat="57.485875" lon="-2.764307"></trkpt>
      <trkpt lat="57.487184" lon="-2.765648"></trkpt>
      <trkpt lat="57.488404" lon="-2.766452"></trkpt>
      <trkpt lat="57.488627" lon="-2.766571"></trkpt>
      <trkpt lat="57.489670" lon="-2.767118"></trkpt>
      <trkpt lat="57.491503" lon="-2.767697"></trkpt>
      <trkpt lat="57.492968" lon="-2.768577"></trkpt>
      <trkpt lat="57.494594" lon="-2.770079"></trkpt>
      <trkpt lat="57.497309" lon="-2.772965"></trkpt>
      <trkpt lat="57.498399" lon="-2.774317"></trkpt>
      <trkpt lat="57.499350" lon="-2.775980"></trkpt>
      <trkpt lat="57.500165" lon="-2.777748"></trkpt>
      <trkpt lat="57.501512" lon="-2.781001"></trkpt>
      <trkpt lat="57.501927" lon="-2.782396"></trkpt>
      <trkpt lat="57.502382" lon="-2.784295"></trkpt>
      <trkpt lat="57.502843" lon="-2.786698"></trkpt>
      <trkpt lat="57.503385" lon="-2.788694"></trkpt>
      <trkpt lat="57.503996" lon="-2.790357"></trkpt>
      <trkpt lat="57.504561" lon="-2.791397"></trkpt>
      <trkpt lat="57.507379" lon="-2.795850"></trkpt>
      <trkpt lat="57.509391" lon="-2.799058"></trkpt>
      <trkpt lat="57.511863" lon="-2.803027"></trkpt>
      <trkpt lat="57.513206" lon="-2.805195"></trkpt>
      <trkpt lat="57.514169" lon="-2.807055"></trkpt>
      <trkpt lat="57.514376" lon="-2.807512"></trkpt>
      <trkpt lat="57.516185" lon="-2.811643"></trkpt>
      <trkpt lat="57.518178" lon="-2.816041"></trkpt>
      <trkpt lat="57.518697" lon="-2.817232"></trkpt>
      <trkpt lat="57.519457" lon="-2.818455"></trkpt>
      <trkpt lat="57.520206" lon="-2.819400"></trkpt>
      <trkpt lat="57.521318" lon="-2.820376"></trkpt>
      <trkpt lat="57.527955" lon="-2.824936"></trkpt>
      <trkpt lat="57.530276" lon="-2.826556"></trkpt>
      <trkpt lat="57.532649" lon="-2.828187"></trkpt>
      <trkpt lat="57.535870" lon="-2.830414"></trkpt>
      <trkpt lat="57.537066" lon="-2.831234"></trkpt>
      <trkpt lat="57.538045" lon="-2.831952"></trkpt>
      <trkpt lat="57.539024" lon="-2.833025"></trkpt>
      <trkpt lat="57.539899" lon="-2.834334"></trkpt>
      <trkpt lat="57.540671" lon="-2.835890"></trkpt>
      <trkpt lat="57.541396" lon="-2.838143"></trkpt>
      <trkpt lat="57.541984" lon="-2.840750"></trkpt>
      <trkpt lat="57.542249" lon="-2.842585"></trkpt>
      <trkpt lat="57.542329" lon="-2.843845"></trkpt>
      <trkpt lat="57.542364" lon="-2.846297"></trkpt>
      <trkpt lat="57.542531" lon="-2.849097"></trkpt>
      <trkpt lat="57.543132" lon="-2.857083"></trkpt>
      <trkpt lat="57.543273" lon="-2.858624"></trkpt>
      <trkpt lat="57.543590" lon="-2.860448"></trkpt>
      <trkpt lat="57.544395" lon="-2.863545"></trkpt>
      <trkpt lat="57.545352" lon="-2.867379"></trkpt>
      <trkpt lat="57.546146" lon="-2.871392"></trkpt>
      <trkpt lat="57.546809" lon="-2.875780"></trkpt>
      <trkpt lat="57.547292" lon="-2.880447"></trkpt>
      <trkpt lat="57.547534" lon="-2.884577"></trkpt>
      <trkpt lat="57.547738" lon="-2.890609"></trkpt>
      <trkpt lat="57.548035" lon="-2.899308"></trkpt>
      <trkpt lat="57.548282" lon="-2.905552"></trkpt>
      <trkpt lat="57.548588" lon="-2.908106"></trkpt>
      <trkpt lat="57.548901" lon="-2.909924"></trkpt>
      <trkpt lat="57.549025" lon="-2.910573"></trkpt>
      <trkpt lat="57.550207" lon="-2.916629"></trkpt>
      <trkpt lat="57.552656" lon="-2.929303"></trkpt>
      <trkpt lat="57.553182" lon="-2.932106"></trkpt>
      <trkpt lat="57.553349" lon="-2.933266"></trkpt>
      <trkpt lat="57.553481" lon="-2.934460"></trkpt>
      <trkpt lat="57.553571" lon="-2.935632"></trkpt>
      <trkpt lat="57.553621" lon="-2.936677"></trkpt>
      <trkpt lat="57.553642" lon="-2.937668"></trkpt>
      <trkpt lat="57.553641" lon="-2.938312"></trkpt>
      <trkpt lat="57.553626" lon="-2.939033"></trkpt>
      <trkpt lat="57.553509" lon="-2.942738"></trkpt>
      <trkpt lat="57.553341" lon="-2.944919"></trkpt>
      <trkpt lat="57.552949" lon="-2.947668"></trkpt>
      <trkpt lat="57.552751" lon="-2.948813"></trkpt>
      <trkpt lat="57.552619" lon="-2.949407"></trkpt>
      <trkpt lat="57.552403" lon="-2.950352"></trkpt>
      <trkpt lat="57.552138" lon="-2.951468"></trkpt>
      <trkpt lat="57.551673" lon="-2.953324"></trkpt>
      <trkpt lat="57.551065" lon="-2.955700"></trkpt>
      <trkpt lat="57.550832" lon="-2.956600"></trkpt>
      <trkpt lat="57.550587" lon="-2.957769"></trkpt>
      <trkpt lat="57.550181" lon="-2.959792"></trkpt>
      <trkpt lat="57.549721" lon="-2.962016"></trkpt>
      <trkpt lat="57.549147" lon="-2.964466"></trkpt>
      <trkpt lat="57.546727" lon="-2.974697"></trkpt>
      <trkpt lat="57.546236" lon="-2.976758"></trkpt>
      <trkpt lat="57.545705" lon="-2.978970"></trkpt>
      <trkpt lat="57.544867" lon="-2.982516"></trkpt>
      <trkpt lat="57.543429" lon="-2.988572"></trkpt>
      <trkpt lat="57.542721" lon="-2.991404"></trkpt>
      <trkpt lat="57.541483" lon="-2.995084"></trkpt>
      <trkpt lat="57.540258" lon="-2.998702"></trkpt>
      <trkpt lat="57.539450" lon="-3.001146"></trkpt>
      <trkpt lat="57.538830" lon="-3.003583"></trkpt>
      <trkpt lat="57.538511" lon="-3.005030"></trkpt>
      <trkpt lat="57.538057" lon="-3.007873"></trkpt>
      <trkpt lat="57.537774" lon="-3.010834"></trkpt>
      <trkpt lat="57.537682" lon="-3.013431"></trkpt>
      <trkpt lat="57.537705" lon="-3.022883"></trkpt>
      <trkpt lat="57.537739" lon="-3.030839"></trkpt>
      <trkpt lat="57.537751" lon="-3.034577"></trkpt>
      <trkpt lat="57.537682" lon="-3.036755"></trkpt>
      <trkpt lat="57.537469" lon="-3.039341"></trkpt>
      <trkpt lat="57.536669" lon="-3.045950"></trkpt>
      <trkpt lat="57.536375" lon="-3.049061"></trkpt>
      <trkpt lat="57.536260" lon="-3.051936"></trkpt>
      <trkpt lat="57.536306" lon="-3.054297"></trkpt>
      <trkpt lat="57.536467" lon="-3.056646"></trkpt>
      <trkpt lat="57.536715" lon="-3.058899"></trkpt>
      <trkpt lat="57.537066" lon="-3.061088"></trkpt>
      <trkpt lat="57.537619" lon="-3.063663"></trkpt>
      <trkpt lat="57.538494" lon="-3.066699"></trkpt>
      <trkpt lat="57.539208" lon="-3.068652"></trkpt>
      <trkpt lat="57.540268" lon="-3.071023"></trkpt>
      <trkpt lat="57.542203" lon="-3.075100"></trkpt>
      <trkpt lat="57.543682" lon="-3.078201"></trkpt>
      <trkpt lat="57.544719" lon="-3.080969"></trkpt>
      <trkpt lat="57.546791" lon="-3.087645"></trkpt>
      <trkpt lat="57.547223" lon="-3.089166"></trkpt>
      <trkpt lat="57.547726" lon="-3.091792"></trkpt>
      <trkpt lat="57.548124" lon="-3.093385"></trkpt>
      <trkpt lat="57.548729" lon="-3.095207"></trkpt>
      <trkpt lat="57.549555" lon="-3.096932"></trkpt>
      <trkpt lat="57.549976" lon="-3.097821"></trkpt>
      <trkpt lat="57.550505" lon="-3.099283"></trkpt>
      <trkpt lat="57.550971" lon="-3.101075"></trkpt>
      <trkpt lat="57.551322" lon="-3.103167"></trkpt>
      <trkpt lat="57.551418" lon="-3.104173"></trkpt>
      <trkpt lat="57.551483" lon="-3.105591"></trkpt>
      <trkpt lat="57.551479" lon="-3.107101"></trkpt>
      <trkpt lat="57.551399" lon="-3.108204"></trkpt>
      <trkpt lat="57.551333" lon="-3.108880"></trkpt>
      <trkpt lat="57.551018" lon="-3.111004"></trkpt>
      <trkpt lat="57.550849" lon="-3.112721"></trkpt>
      <trkpt lat="57.550597" lon="-3.116267"></trkpt>
      <trkpt lat="57.550326" lon="-3.120912"></trkpt>
      <trkpt lat="57.550286" lon="-3.123466"></trkpt>
      <trkpt lat="57.550176" lon="-3.125558"></trkpt>
      <trkpt lat="57.549906" lon="-3.128090"></trkpt>
      <trkpt lat="57.549756" lon="-3.130171"></trkpt>
      <trkpt lat="57.549802" lon="-3.132081"></trkpt>
      <trkpt lat="57.550010" lon="-3.134152"></trkpt>
      <trkpt lat="57.550843" lon="-3.138798"></trkpt>
      <trkpt lat="57.551319" lon="-3.141398"></trkpt>
      <trkpt lat="57.551840" lon="-3.144151"></trkpt>
      <trkpt lat="57.552243" lon="-3.145728"></trkpt>
      <trkpt lat="57.552853" lon="-3.147487"></trkpt>
      <trkpt lat="57.553521" lon="-3.148861"></trkpt>
      <trkpt lat="57.554287" lon="-3.150030"></trkpt>
      <trkpt lat="57.555109" lon="-3.151047"></trkpt>
      <trkpt lat="57.555891" lon="-3.151729"></trkpt>
      <trkpt lat="57.557108" lon="-3.152420"></trkpt>
      <trkpt lat="57.558055" lon="-3.152691"></trkpt>
      <trkpt lat="57.559092" lon="-3.152654"></trkpt>
      <trkpt lat="57.560123" lon="-3.152357"></trkpt>
      <trkpt lat="57.563443" lon="-3.151113"></trkpt>
      <trkpt lat="57.564658" lon="-3.150683"></trkpt>
      <trkpt lat="57.565670" lon="-3.150608"></trkpt>
      <trkpt lat="57.566901" lon="-3.150897"></trkpt>
      <trkpt lat="57.567680" lon="-3.151287"></trkpt>
      <trkpt lat="57.570431" lon="-3.153096"></trkpt>
      <trkpt lat="57.572666" lon="-3.154626"></trkpt>
      <trkpt lat="57.575074" lon="-3.156196"></trkpt>
      <trkpt lat="57.576625" lon="-3.156875"></trkpt>
      <trkpt lat="57.577881" lon="-3.157199"></trkpt>
      <trkpt lat="57.579872" lon="-3.157418"></trkpt>
      <trkpt lat="57.580809" lon="-3.157496"></trkpt>
      <trkpt lat="57.586040" lon="-3.157948"></trkpt>
      <trkpt lat="57.591842" lon="-3.158463"></trkpt>
      <trkpt lat="57.593815" lon="-3.158678"></trkpt>
      <trkpt lat="57.595425" lon="-3.159107"></trkpt>
      <trkpt lat="57.601432" lon="-3.161446"></trkpt>
      <trkpt lat="57.603265" lon="-3.162146"></trkpt>
      <trkpt lat="57.604743" lon="-3.162744"></trkpt>
      <trkpt lat="57.606111" lon="-3.163527"></trkpt>
      <trkpt lat="57.607278" lon="-3.164503"></trkpt>
      <trkpt lat="57.608307" lon="-3.165651"></trkpt>
      <trkpt lat="57.611985" lon="-3.169943"></trkpt>
      <trkpt lat="57.616493" lon="-3.175162"></trkpt>
      <trkpt lat="57.619024" lon="-3.178129"></trkpt>
      <trkpt lat="57.620484" lon="-3.180007"></trkpt>
      <trkpt lat="57.625947" lon="-3.187635"></trkpt>
      <trkpt lat="57.629497" lon="-3.192613"></trkpt>
      <trkpt lat="57.630451" lon="-3.194576"></trkpt>
      <trkpt lat="57.631054" lon="-3.196400"></trkpt>
      <trkpt lat="57.631508" lon="-3.198449"></trkpt>
      <trkpt lat="57.631789" lon="-3.200778"></trkpt>
      <trkpt lat="57.631875" lon="-3.202312"></trkpt>
      <trkpt lat="57.632286" lon="-3.209641"></trkpt>
      <trkpt lat="57.632371" lon="-3.211068"></trkpt>
      <trkpt lat="57.632744" lon="-3.216167"></trkpt>
      <trkpt lat="57.633007" lon="-3.219780"></trkpt>
      <trkpt lat="57.633184" lon="-3.222236"></trkpt>
      <trkpt lat="57.633490" lon="-3.226531"></trkpt>
      <trkpt lat="57.634276" lon="-3.237502"></trkpt>
      <trkpt lat="57.634851" lon="-3.245485"></trkpt>
      <trkpt lat="57.635377" lon="-3.252876"></trkpt>
      <trkpt lat="57.635706" lon="-3.256492"></trkpt>
      <trkpt lat="57.636091" lon="-3.259464"></trkpt>
      <trkpt lat="57.636522" lon="-3.262104"></trkpt>
      <trkpt lat="57.637022" lon="-3.264850"></trkpt>
      <trkpt lat="57.637825" lon="-3.268337"></trkpt>
      <trkpt lat="57.639979" lon="-3.277092"></trkpt>
      <trkpt lat="57.640476" lon="-3.279057"></trkpt>
      <trkpt lat="57.641532" lon="-3.283289"></trkpt>
      <trkpt lat="57.641963" lon="-3.285102"></trkpt>
      <trkpt lat="57.642225" lon="-3.286466"></trkpt>
      <trkpt lat="57.642437" lon="-3.287869"></trkpt>
      <trkpt lat="57.642531" lon="-3.288598"></trkpt>
      <trkpt lat="57.642656" lon="-3.289966"></trkpt>
      <trkpt lat="57.642731" lon="-3.291285"></trkpt>
      <trkpt lat="57.642774" lon="-3.293065"></trkpt>
      <trkpt lat="57.642789" lon="-3.300423"></trkpt>
      <trkpt lat="57.642777" lon="-3.302840"></trkpt>
      <trkpt lat="57.642764" lon="-3.307520"></trkpt>
      <trkpt lat="57.642772" lon="-3.311218"></trkpt>
      <trkpt lat="57.642769" lon="-3.314096"></trkpt>
      <trkpt lat="57.642701" lon="-3.315847"></trkpt>
      <trkpt lat="57.642561" lon="-3.318803"></trkpt>
      <trkpt lat="57.642476" lon="-3.320382"></trkpt>
      <trkpt lat="57.642325" lon="-3.324198"></trkpt>
      <trkpt lat="57.642189" lon="-3.326881"></trkpt>
      <trkpt lat="57.642071" lon="-3.329311"></trkpt>
      <trkpt lat="57.641641" lon="-3.337184"></trkpt>
      <trkpt lat="57.641280" lon="-3.341560"></trkpt>
      <trkpt lat="57.641055" lon="-3.344082"></trkpt>
      <trkpt lat="57.640294" lon="-3.352844"></trkpt>
      <trkpt lat="57.639717" lon="-3.359532"></trkpt>
      <trkpt lat="57.639654" lon="-3.363619"></trkpt>
      <trkpt lat="57.639836" lon="-3.367383"></trkpt>
      <trkpt lat="57.640040" lon="-3.370083"></trkpt>
      <trkpt lat="57.641210" lon="-3.384637"></trkpt>
      <trkpt lat="57.641318" lon="-3.385911"></trkpt>
      <trkpt lat="57.642100" lon="-3.395645"></trkpt>
      <trkpt lat="57.642612" lon="-3.402417"></trkpt>
      <trkpt lat="57.642697" lon="-3.404453"></trkpt>
      <trkpt lat="57.642743" lon="-3.408133"></trkpt>
      <trkpt lat="57.642611" lon="-3.412060"></trkpt>
      <trkpt lat="57.642353" lon="-3.415429"></trkpt>
      <trkpt lat="57.641956" lon="-3.418572"></trkpt>
      <trkpt lat="57.641204" lon="-3.422939"></trkpt>
      <trkpt lat="57.640613" lon="-3.426308"></trkpt>
      <trkpt lat="57.638787" lon="-3.436404"></trkpt>
      <trkpt lat="57.638264" lon="-3.440116"></trkpt>
      <trkpt lat="57.637845" lon="-3.444558"></trkpt>
      <trkpt lat="57.637655" lon="-3.447755"></trkpt>
      <trkpt lat="57.637605" lon="-3.449649"></trkpt>
      <trkpt lat="57.637425" lon="-3.462679"></trkpt>
      <trkpt lat="57.637259" lon="-3.474480"></trkpt>
      <trkpt lat="57.637179" lon="-3.478182"></trkpt>
      <trkpt lat="57.636972" lon="-3.482495"></trkpt>
      <trkpt lat="57.636691" lon="-3.487999"></trkpt>
      <trkpt lat="57.636443" lon="-3.492934"></trkpt>
      <trkpt lat="57.635863" lon="-3.504371"></trkpt>
      <trkpt lat="57.635463" lon="-3.512268"></trkpt>
      <trkpt lat="57.634973" lon="-3.522020"></trkpt>
      <trkpt lat="57.634743" lon="-3.525743"></trkpt>
      <trkpt lat="57.634278" lon="-3.530989"></trkpt>
      <trkpt lat="57.633578" lon="-3.538982"></trkpt>
      <trkpt lat="57.632671" lon="-3.549139"></trkpt>
      <trkpt lat="57.632130" lon="-3.555311"></trkpt>
      <trkpt lat="57.631699" lon="-3.560043"></trkpt>
      <trkpt lat="57.631326" lon="-3.563948"></trkpt>
      <trkpt lat="57.630958" lon="-3.566745"></trkpt>
      <trkpt lat="57.630419" lon="-3.569935"></trkpt>
      <trkpt lat="57.629879" lon="-3.572574"></trkpt>
      <trkpt lat="57.629235" lon="-3.574956"></trkpt>
      <trkpt lat="57.628529" lon="-3.577381"></trkpt>
      <trkpt lat="57.627822" lon="-3.579526"></trkpt>
      <trkpt lat="57.626943" lon="-3.581801"></trkpt>
      <trkpt lat="57.625760" lon="-3.584773"></trkpt>
      <trkpt lat="57.622910" lon="-3.591789"></trkpt>
      <trkpt lat="57.619743" lon="-3.599622"></trkpt>
      <trkpt lat="57.618217" lon="-3.603454"></trkpt>
      <trkpt lat="57.617265" lon="-3.605749"></trkpt>
      <trkpt lat="57.616420" lon="-3.607832"></trkpt>
      <trkpt lat="57.615607" lon="-3.609840"></trkpt>
      <trkpt lat="57.614138" lon="-3.613540"></trkpt>
      <trkpt lat="57.613368" lon="-3.615748"></trkpt>
      <trkpt lat="57.612888" lon="-3.617327"></trkpt>
    </trkseg>
  </trk>
</gpx>
